[{"OBJECT_NAME":"STARLINK-31850","OBJECT_ID":"2024-100U","EPOCH":"2026-03-09T12:24:31.788576","MEAN_MOTION":15.27564513,"ECCENTRICITY":0.00010057,"INCLINATION":42.9977,"RA_OF_ASC_NODE":126.0864,"ARG_OF_PERICENTER":264.5512,"MEAN_ANOMALY":95.5225,"EPHEMERIS_TYPE":0,"CLASSIFICATION_TYPE":"U","NORAD_CAT_ID":59903,"ELEMENT_SET_NO":999,"REV_AT_EPOCH":10107,"BSTAR":6.150559e-6,"MEAN_MOTION_DOT":-9.3e-7,"MEAN_MOTION_DDOT":0},{"OBJECT_NAME":"FLOCK 4G-10","OBJECT_ID":"2025-009BP","EPOCH":"2026-03-09T16:59:55.292640","MEAN_MOTION":15.27155944,"ECCENTRICITY":0.00034694,"INCLINATION":97.3967,"RA_OF_ASC_NODE":150.5883,"ARG_OF_PERICENTER":341.4844,"MEAN_ANOMALY":18.6269,"EPHEMERIS_TYPE":0,"CLASSIFICATION_TYPE":"U","NORAD_CAT_ID":62670,"ELEMENT_SET_NO":999,"REV_AT_EPOCH":12134,"BSTAR":0.00052624432,"MEAN_MOTION_DOT":0.00013952,"MEAN_MOTION_DDOT":0}]
